BEIDOU 3 (C01)          
1 36287U 10001A   21186.63451992 -.00000274  00000-0  00000-0 0  9999
2 36287   1.9021  47.2693 0005750  82.8391 162.5942  1.00270291 42030
BEIDOU 5 (C06)          
1 36828U 10036A   21186.60972927 -.00000021  00000-0  00000-0 0  9991
2 36828  54.1800 179.4255 0114524 235.6304 205.4947  1.00254787 40098
BEIDOU 6 (C04)          
1 37210U 10057A   21186.62341110 -.00000104  00000-0  00000-0 0  9998
2 37210   0.8704  49.8451 0004587 119.1442 139.2297  1.00273251 39153
BEIDOU 7 (C07)          
1 37256U 10068A   21185.19918483 -.00000236  00000-0  00000+0 0  9999
2 37256  50.8328 293.8023 0086523 215.7107 320.5831  1.00248125 38652
BEIDOU 8 (C08)          
1 37384U 11013A   21186.55535726 -.00000209  00000-0  00000-0 0  9999
2 37384  59.8042  57.7099 0054046 207.0359 334.4692  1.00301099 37540
BEIDOU 9 (C09)          
1 37763U 11038A   21186.45067558  .00000010  00000-0  00000-0 0  9998
2 37763  54.4669 181.8710 0084266 226.9096 131.6735  1.00261459 36517
BEIDOU 10 (C10)         
1 37948U 11073A   21186.52249120 -.00000170  00000-0  00000-0 0  9995
2 37948  50.9318 293.4050 0075795 214.8288  58.3067  1.00289054 35273
BEIDOU 11 (C05)         
1 38091U 12008A   21186.51517273  .00000062  00000-0  00000-0 0  9999
2 38091   1.5890  67.7237 0007712 335.9579 124.3681  1.00277762 34358
BEIDOU 12 (C11)         
1 38250U 12018A   21184.63502565 -.00000094  00000-0  00000+0 0  9991
2 38250  56.7545   5.0784 0020116 246.3146  96.8197  1.86234373 62580
BEIDOU 13 (C12)         
1 38251U 12018B   21185.97707667 -.00000091  00000-0  00000-0 0  9998
2 38251  56.6741   4.3799 0010977 247.3612 319.9484  1.86234091 62618
BEIDOU 15 (C14)         
1 38775U 12050B   21186.32305439 -.00000027  00000-0  00000-0 0  9995
2 38775  55.2173 123.3812 0015435 320.7353 315.9432  1.86232278 59994
BEIDOU 16 (C02)         
1 38953U 12059A   21186.59191258 -.00000169  00000-0  00000-0 0  9990
2 38953   2.0133  84.7928 0006124 300.1292 196.0029  1.00271681 31925
BEIDOU 17 (C31)         
1 40549U 15019A   21186.52279389 -.00000192  00000-0  00000-0 0  9994
2 40549  52.4673 316.7815 0038942 187.4531  62.8557  1.00261799 22953
BEIDOU 18 (C57)         
1 40748U 15037A   21186.11440197 -.00000093  00000-0  00000-0 0  9997
2 40748  55.9352   3.4522 0004395  45.5936 163.6407  1.86233277 40441
BEIDOU 19 (C58)         
1 40749U 15037B   21186.38534411 -.00000093  00000-0  00000+0 0  9999
2 40749  55.9395   3.4314 0003219 351.7740 175.1527  1.86232203 40446
BEIDOU 20 (C18)         
1 40938U 15053A   21186.38540727 -.00000149  00000-0  00000-0 0  9997
2 40938  52.0344 279.8581 0047949 192.5356  46.3706  1.00279715 21223
BEIDOU IGSO-6 (C13)     
1 41434U 16021A   21186.59452966 -.00000170  00000-0  00000-0 0  9999
2 41434  57.5860  56.4498 0037920 212.7182 324.6202  1.00265585 19358
BEIDOU-2 G7 (C03)       
1 41586U 16037A   21186.55535726 -.00000347  00000-0  00000-0 0  9992
2 41586   1.7379  67.5631 0008891  19.1537 147.5307  1.00271854 18669
BEIDOU-3 M1 (C19)       
1 43001U 17069A   21186.43628041 -.00000028  00000-0  00000-0 0  9998
2 43001  55.3712 123.3311 0011782 293.1576 215.4562  1.86231842 24937
BEIDOU-3 M2 (C20)       
1 43002U 17069B   21186.38759179 -.00000028  00000-0  00000+0 0  9999
2 43002  55.3709 123.3686 0010015 312.7941 206.6265  1.86231445 24921
BEIDOU-3 M3 (C27)       
1 43107U 18003A   21186.18086977 -.00000094  00000-0  00000-0 0  9995
2 43107  55.3799   4.5235 0005627  56.7547 129.9487  1.86232432 23688
BEIDOU-3 M4 (C28)       
1 43108U 18003B   21186.41385473 -.00000094  00000-0  00000-0 0  9995
2 43108  55.3737   4.5038 0001954 231.0838 157.0033  1.86232463 23696
BEIDOU-3 M5 (C21)       
1 43207U 18018A   21185.74518540 -.00000024  00000-0  00000-0 0  9992
2 43207  55.3304 123.4803 0007867 329.3474  30.5758  1.86231716 23063
BEIDOU-3 M6 (C22)       
1 43208U 18018B   21185.81186187 -.00000024  00000-0  00000-0 0  9999
2 43208  55.3305 123.4839 0010027 303.6124  56.2601  1.86231657 23069
BEIDOU-3 M7 (C29)       
1 43245U 18029A   21186.31622656 -.00000095  00000-0  00000-0 0  9992
2 43245  55.3106   2.3076 0001388  83.2792 104.3825  1.86232649 22221
BEIDOU-3 M8 (C30)       
1 43246U 18029B   21185.41033487 -.00000096  00000-0  10000-3 0  9996
2 43246  55.3091   2.3702 0004122   8.7163 337.7738  1.86232747 22194
BEIDOU IGSO-7 (C16)     
1 43539U 18057A   21186.38275774 -.00000047  00000-0  00000-0 0  9998
2 43539  55.0592 178.7911 0039307 223.8300 131.8338  1.00263354 11021
BEIDOU-3 M9 (C23)       
1 43581U 18062A   21186.26148265  .00000040  00000-0  00000-0 0  9994
2 43581  54.3938 243.9880 0005063 261.2982 145.9859  1.86231893 19960
BEIDOU-3 M10 (C24)      
1 43582U 18062B   21186.59377563  .00000045  00000-0  00000-0 0  9991
2 43582  54.3937 243.9696 0004252 334.0368  27.3769  1.86232027 19975
BEIDOU-3 M11 (C25)      
1 43602U 18067A   21186.38745907  .00000045  00000-0  00000-0 0  9997
2 43602  54.4695 242.5560 0006302 353.5367 271.7596  1.86231678 19455
BEIDOU-3 M12 (C26)      
1 43603U 18067B   21186.12830583  .00000042  00000-0  00000+0 0  9991
2 43603  54.4672 242.5315 0003911 335.1509  26.8526  1.86231590 19473
BEIDOU-3 M13 (C32)      
1 43622U 18072A   21185.91635971 -.00000026  00000-0  00000+0 0  9991
2 43622  55.2951 123.0423 0007954 291.7271 318.2528  1.86231780 18975
BEIDOU-3 M14 (C33)      
1 43623U 18072B   21186.32335534 -.00000028  00000-0  00000-0 0  9993
2 43623  55.2967 123.0192 0006456 312.8382 300.2502  1.86231794 18989
BEIDOU-3 M15 (C34)      
1 43647U 18078A   21186.51711946 -.00000095  00000-0  10000-3 0  9999
2 43647  55.2044   2.4886 0006470   8.6351 269.5951  1.86232877 18497
BEIDOU-3 M16 (C35)      
1 43648U 18078B   21186.27878392 -.00000095  00000-0  00000-0 0  9998
2 43648  55.2019   2.5052 0004697  25.0635   1.7985  1.86232204 18513
BEIDOU-3 G1 (C59)       
1 43683U 18085A   21186.54285605 -.00000269  00000-0  00000-0 0  9997
2 43683   1.0285 224.9495 0003332 358.1051  36.0480  1.00267249  9934
BEIDOU-3 M17 (C36)      
1 43706U 18093A   21186.39235971  .00000042  00000-0  00000-0 0  9994
2 43706  54.4741 243.8418 0011096 265.9278  94.0298  1.86232092 17871
BEIDOU-3 M18 (C37)      
1 43707U 18093B   21186.26823617  .00000041  00000-0  00000-0 0  9990
2 43707  54.4749 243.8371 0009105 287.5272  80.0756  1.86232078 17867
BEIDOU-3 IGSO-1 (C38)   
1 44204U 19023A   21186.55535726 -.00000227  00000-0  00000-0 0  9997
2 44204  56.0423  56.7242 0018670 191.4035 348.4740  1.00290201  8235
BEIDOU-2 G8             
1 44231U 19027A   21186.56715821 -.00000238  00000-0  00000-0 0  9990
2 44231   0.2577 358.6316 0006013 185.9467  87.8559  1.00275448  7942
BEIDOU-3 IGSO-2 (C39)   
1 44337U 19035A   21186.31817307 -.00000043  00000-0  00000-0 0  9995
2 44337  55.0952 174.8323 0020168 194.0098 136.8764  1.00276189  7562
BEIDOU-3 M23 (C45)      
1 44542U 19061A   21186.52255162  .00000044  00000-0  10000-3 0  9994
2 44542  54.6996 243.9122 0008081 318.0504 173.0303  1.86231254 12126
BEIDOU-3 M24 (C46)      
1 44543U 19061B   21185.69671102  .00000033  00000-0  10000-3 0  9996
2 44543  54.6976 243.9083 0005572 302.9936 265.2797  1.86231657 12100
BEIDOU-3 IGSO-3         
1 44709U 19073A   21186.38685557 -.00000199  00000-0  00000-0 0  9999
2 44709  57.8139 299.9726 0020534 199.6669  30.1377  1.00271381  6328
BEIDOU-3 M21            
1 44793U 19078A   21186.17063338 -.00000096  00000-0  10000-3 0  9991
2 44793  55.0547   2.5648 0006514  14.8960 345.4442  1.86232288 10988
BEIDOU-3 M22            
1 44794U 19078B   21184.88207447 -.00000098  00000-0  00000+0 0  9996
2 44794  55.0274   2.6085 0004612  15.5904 111.8523  1.86232848 10959
BEIDOU-3 M19            
1 44864U 19090A   21186.39868582 -.00000028  00000-0  00000-0 0  9993
2 44864  55.2303 123.2547 0017446 270.5093 348.3516  1.86231939 10562
BEIDOU-3 M20            
1 44865U 19090B   21186.60107655 -.00000029  00000-0  00000-0 0  9996
2 44865  55.2326 123.2798 0016330 284.5769 199.8959  1.86231941 10543
BEIDOU-3 G2             
1 45344U 20017A   21186.51936005 -.00000131  00000-0  00000-0 0  9993
2 45344   2.4055 337.4588 0004232 134.8552  78.4334  1.00272402  5142
BEIDOU-3 G3             
1 45807U 20040A   21186.59723397 -.00000342  00000-0  00000-0 0  9993
2 45807   2.2402 298.6858 0004401 349.1525 321.4469  1.00276165  3954
